STARLINK-35770          
1 66977U 25288U   25362.25002315 -.02086297  00000+0 -37476-1 0  9999
2 66977  43.0005  73.0456 0001545 273.1805 344.9907 15.52388798  4326
STARLINK-35787          
1 66978U 25288V   25362.25002315 -.01972279  00000+0 -35269-1 0  9991
2 66978  43.0004  73.0307 0001168 270.4404 353.4955 15.52330318  4320
STARLINK-36107          
1 66979U 25288W   25362.25002315 -.02084096  00000+0 -37435-1 0  9991
2 66979  43.0003  73.0260 0001648 276.2233 349.6194 15.52385209  4326
STARLINK-36086          
1 66980U 25288X   25362.25002315 -.02086770  00000+0 -37488-1 0  9992
2 66980  43.0005  73.0209 0001581 274.8684 352.8923 15.52386017  4327
STARLINK-36142          
1 66981U 25288Y   25362.25002315 -.02086619  00000+0 -37484-1 0  9991
2 66981  43.0004  73.0162 0001716 276.5287 353.1490 15.52385537  4322
STARLINK-36113          
1 66982U 25288Z   25362.25002315 -.01966252  00000+0 -35155-1 0  9994
2 66982  43.0005  73.0112 0001212 266.3381   5.2701 15.52324660  4322
STARLINK-36145          
1 66983U 25288AA  25362.25002315 -.02072414  00000+0 -37211-1 0  9999
2 66983  43.0005  73.0017 0001664 276.4538 358.9773 15.52375949  4327
STARLINK-35591          
1 66984U 25288AB  25362.25002315 -.02075676  00000+0 -37274-1 0  9992
2 66984  43.0004  73.0060 0001581 271.6829   1.8296 15.52379255  4321
STARLINK-36103          
1 66985U 25288AC  25362.25002315 -.02083377  00000+0 -37420-1 0  9993
2 66985  43.0004  72.9965 0001745 278.2808 359.0628 15.52384400  4321
STARLINK-36135          
1 66986U 25288AD  25362.25002315 -.02063426  00000+0 -37040-1 0  9995
2 66986  43.0004  72.9910 0001609 276.9843   2.2827 15.52369081  4321
STARLINK-36147          
1 66987U 25288AE  25362.25002315 -.01977029  00000+0 -35360-1 0  9991
2 66987  43.0005  72.9870 0001122 267.1064  14.0830 15.52333261  4321
YAOGAN-47               
1 66988U 25289A   25362.17815560  .00004855  00000+0  20730-3 0  9990
2 66988  97.5253  67.3364 0000855 117.9958 242.1365 15.23366104  2890
