CCSDS_OMM_VERS = 2.0
CREATION_DATE  = 
ORIGINATOR     = 

OBJECT_NAME    = STARLINK-35770
OBJECT_ID      = 2025-288U
CENTER_NAME    = EARTH
REF_FRAME      = TEME
TIME_SYSTEM    = UTC
MEAN_ELEMENT_THEORY = SGP/SGP4

EPOCH          = 2025-12-28T06:00:02.000160
MEAN_MOTION    = 15.52388798
ECCENTRICITY   = .00015455
INCLINATION    = 43.0005
RA_OF_ASC_NODE = 73.0456
ARG_OF_PERICENTER = 273.1805
MEAN_ANOMALY   = 344.9907

EPHEMERIS_TYPE = 0
CLASSIFICATION_TYPE = U
NORAD_CAT_ID   = 66977
ELEMENT_SET_NO = 999
REV_AT_EPOCH   = 432
BSTAR          = -.37475601E-1
MEAN_MOTION_DOT = -.2086297E-1
MEAN_MOTION_DDOT = 0

CCSDS_OMM_VERS = 2.0
CREATION_DATE  = 
ORIGINATOR     = 

OBJECT_NAME    = STARLINK-35787
OBJECT_ID      = 2025-288V
CENTER_NAME    = EARTH
REF_FRAME      = TEME
TIME_SYSTEM    = UTC
MEAN_ELEMENT_THEORY = SGP/SGP4

EPOCH          = 2025-12-28T06:00:02.000160
MEAN_MOTION    = 15.52330318
ECCENTRICITY   = .00011684
INCLINATION    = 43.0004
RA_OF_ASC_NODE = 73.0307
ARG_OF_PERICENTER = 270.4404
MEAN_ANOMALY   = 353.4955

EPHEMERIS_TYPE = 0
CLASSIFICATION_TYPE = U
NORAD_CAT_ID   = 66978
ELEMENT_SET_NO = 999
REV_AT_EPOCH   = 432
BSTAR          = -.35268581E-1
MEAN_MOTION_DOT = -.1972279E-1
MEAN_MOTION_DDOT = 0

CCSDS_OMM_VERS = 2.0
CREATION_DATE  = 
ORIGINATOR     = 

OBJECT_NAME    = STARLINK-36107
OBJECT_ID      = 2025-288W
CENTER_NAME    = EARTH
REF_FRAME      = TEME
TIME_SYSTEM    = UTC
MEAN_ELEMENT_THEORY = SGP/SGP4

EPOCH          = 2025-12-28T06:00:02.000160
MEAN_MOTION    = 15.52385209
ECCENTRICITY   = .00016481
INCLINATION    = 43.0003
RA_OF_ASC_NODE = 73.0260
ARG_OF_PERICENTER = 276.2233
MEAN_ANOMALY   = 349.6194

EPHEMERIS_TYPE = 0
CLASSIFICATION_TYPE = U
NORAD_CAT_ID   = 66979
ELEMENT_SET_NO = 999
REV_AT_EPOCH   = 432
BSTAR          = -.374347E-1
MEAN_MOTION_DOT = -.2084096E-1
MEAN_MOTION_DDOT = 0

CCSDS_OMM_VERS = 2.0
CREATION_DATE  = 
ORIGINATOR     = 

OBJECT_NAME    = STARLINK-36086
OBJECT_ID      = 2025-288X
CENTER_NAME    = EARTH
REF_FRAME      = TEME
TIME_SYSTEM    = UTC
MEAN_ELEMENT_THEORY = SGP/SGP4

EPOCH          = 2025-12-28T06:00:02.000160
MEAN_MOTION    = 15.52386017
ECCENTRICITY   = .00015819
INCLINATION    = 43.0005
RA_OF_ASC_NODE = 73.0209
ARG_OF_PERICENTER = 274.8684
MEAN_ANOMALY   = 352.8923

EPHEMERIS_TYPE = 0
CLASSIFICATION_TYPE = U
NORAD_CAT_ID   = 66980
ELEMENT_SET_NO = 999
REV_AT_EPOCH   = 432
BSTAR          = -.37488473E-1
MEAN_MOTION_DOT = -.208677E-1
MEAN_MOTION_DDOT = 0

CCSDS_OMM_VERS = 2.0
CREATION_DATE  = 
ORIGINATOR     = 

OBJECT_NAME    = STARLINK-36142
OBJECT_ID      = 2025-288Y
CENTER_NAME    = EARTH
REF_FRAME      = TEME
TIME_SYSTEM    = UTC
MEAN_ELEMENT_THEORY = SGP/SGP4

EPOCH          = 2025-12-28T06:00:02.000160
MEAN_MOTION    = 15.52385537
ECCENTRICITY   = .00017167
INCLINATION    = 43.0004
RA_OF_ASC_NODE = 73.0162
ARG_OF_PERICENTER = 276.5287
MEAN_ANOMALY   = 353.1490

EPHEMERIS_TYPE = 0
CLASSIFICATION_TYPE = U
NORAD_CAT_ID   = 66981
ELEMENT_SET_NO = 999
REV_AT_EPOCH   = 432
BSTAR          = -.37484284E-1
MEAN_MOTION_DOT = -.2086619E-1
MEAN_MOTION_DDOT = 0

CCSDS_OMM_VERS = 2.0
CREATION_DATE  = 
ORIGINATOR     = 

OBJECT_NAME    = STARLINK-36113
OBJECT_ID      = 2025-288Z
CENTER_NAME    = EARTH
REF_FRAME      = TEME
TIME_SYSTEM    = UTC
MEAN_ELEMENT_THEORY = SGP/SGP4

EPOCH          = 2025-12-28T06:00:02.000160
MEAN_MOTION    = 15.52324660
ECCENTRICITY   = .00012129
INCLINATION    = 43.0005
RA_OF_ASC_NODE = 73.0112
ARG_OF_PERICENTER = 266.3381
MEAN_ANOMALY   = 5.2701

EPHEMERIS_TYPE = 0
CLASSIFICATION_TYPE = U
NORAD_CAT_ID   = 66982
ELEMENT_SET_NO = 999
REV_AT_EPOCH   = 432
BSTAR          = -.35155092E-1
MEAN_MOTION_DOT = -.1966252E-1
MEAN_MOTION_DDOT = 0

CCSDS_OMM_VERS = 2.0
CREATION_DATE  = 
ORIGINATOR     = 

OBJECT_NAME    = STARLINK-36145
OBJECT_ID      = 2025-288AA
CENTER_NAME    = EARTH
REF_FRAME      = TEME
TIME_SYSTEM    = UTC
MEAN_ELEMENT_THEORY = SGP/SGP4

EPOCH          = 2025-12-28T06:00:02.000160
MEAN_MOTION    = 15.52375949
ECCENTRICITY   = .00016643
INCLINATION    = 43.0005
RA_OF_ASC_NODE = 73.0017
ARG_OF_PERICENTER = 276.4538
MEAN_ANOMALY   = 358.9773

EPHEMERIS_TYPE = 0
CLASSIFICATION_TYPE = U
NORAD_CAT_ID   = 66983
ELEMENT_SET_NO = 999
REV_AT_EPOCH   = 432
BSTAR          = -.37211329E-1
MEAN_MOTION_DOT = -.2072414E-1
MEAN_MOTION_DDOT = 0

CCSDS_OMM_VERS = 2.0
CREATION_DATE  = 
ORIGINATOR     = 

OBJECT_NAME    = STARLINK-35591
OBJECT_ID      = 2025-288AB
CENTER_NAME    = EARTH
REF_FRAME      = TEME
TIME_SYSTEM    = UTC
MEAN_ELEMENT_THEORY = SGP/SGP4

EPOCH          = 2025-12-28T06:00:02.000160
MEAN_MOTION    = 15.52379255
ECCENTRICITY   = .00015817
INCLINATION    = 43.0004
RA_OF_ASC_NODE = 73.0060
ARG_OF_PERICENTER = 271.6829
MEAN_ANOMALY   = 1.8296

EPHEMERIS_TYPE = 0
CLASSIFICATION_TYPE = U
NORAD_CAT_ID   = 66984
ELEMENT_SET_NO = 999
REV_AT_EPOCH   = 432
BSTAR          = -.3727373E-1
MEAN_MOTION_DOT = -.2075676E-1
MEAN_MOTION_DDOT = 0

CCSDS_OMM_VERS = 2.0
CREATION_DATE  = 
ORIGINATOR     = 

OBJECT_NAME    = STARLINK-36103
OBJECT_ID      = 2025-288AC
CENTER_NAME    = EARTH
REF_FRAME      = TEME
TIME_SYSTEM    = UTC
MEAN_ELEMENT_THEORY = SGP/SGP4

EPOCH          = 2025-12-28T06:00:02.000160
MEAN_MOTION    = 15.52384400
ECCENTRICITY   = .00017453
INCLINATION    = 43.0004
RA_OF_ASC_NODE = 72.9965
ARG_OF_PERICENTER = 278.2808
MEAN_ANOMALY   = 359.0628

EPHEMERIS_TYPE = 0
CLASSIFICATION_TYPE = U
NORAD_CAT_ID   = 66985
ELEMENT_SET_NO = 999
REV_AT_EPOCH   = 432
BSTAR          = -.37419991E-1
MEAN_MOTION_DOT = -.2083377E-1
MEAN_MOTION_DDOT = 0

CCSDS_OMM_VERS = 2.0
CREATION_DATE  = 
ORIGINATOR     = 

OBJECT_NAME    = STARLINK-36135
OBJECT_ID      = 2025-288AD
CENTER_NAME    = EARTH
REF_FRAME      = TEME
TIME_SYSTEM    = UTC
MEAN_ELEMENT_THEORY = SGP/SGP4

EPOCH          = 2025-12-28T06:00:02.000160
MEAN_MOTION    = 15.52369081
ECCENTRICITY   = .00016098
INCLINATION    = 43.0004
RA_OF_ASC_NODE = 72.9910
ARG_OF_PERICENTER = 276.9843
MEAN_ANOMALY   = 2.2827

EPHEMERIS_TYPE = 0
CLASSIFICATION_TYPE = U
NORAD_CAT_ID   = 66986
ELEMENT_SET_NO = 999
REV_AT_EPOCH   = 432
BSTAR          = -.37040119E-1
MEAN_MOTION_DOT = -.2063426E-1
MEAN_MOTION_DDOT = 0

CCSDS_OMM_VERS = 2.0
CREATION_DATE  = 
ORIGINATOR     = 

OBJECT_NAME    = STARLINK-36147
OBJECT_ID      = 2025-288AE
CENTER_NAME    = EARTH
REF_FRAME      = TEME
TIME_SYSTEM    = UTC
MEAN_ELEMENT_THEORY = SGP/SGP4

EPOCH          = 2025-12-28T06:00:02.000160
MEAN_MOTION    = 15.52333261
ECCENTRICITY   = .00011222
INCLINATION    = 43.0005
RA_OF_ASC_NODE = 72.9870
ARG_OF_PERICENTER = 267.1064
MEAN_ANOMALY   = 14.0830

EPHEMERIS_TYPE = 0
CLASSIFICATION_TYPE = U
NORAD_CAT_ID   = 66987
ELEMENT_SET_NO = 999
REV_AT_EPOCH   = 432
BSTAR          = -.3536013E-1
MEAN_MOTION_DOT = -.1977029E-1
MEAN_MOTION_DDOT = 0

CCSDS_OMM_VERS = 2.0
CREATION_DATE  = 
ORIGINATOR     = 

OBJECT_NAME    = YAOGAN-47
OBJECT_ID      = 2025-289A
CENTER_NAME    = EARTH
REF_FRAME      = TEME
TIME_SYSTEM    = UTC
MEAN_ELEMENT_THEORY = SGP/SGP4

EPOCH          = 2025-12-28T04:16:32.643840
MEAN_MOTION    = 15.23366104
ECCENTRICITY   = .00008556
INCLINATION    = 97.5253
RA_OF_ASC_NODE = 67.3364
ARG_OF_PERICENTER = 117.9958
MEAN_ANOMALY   = 242.1365

EPHEMERIS_TYPE = 0
CLASSIFICATION_TYPE = U
NORAD_CAT_ID   = 66988
ELEMENT_SET_NO = 999
REV_AT_EPOCH   = 289
BSTAR          = .2072964E-3
MEAN_MOTION_DOT = .4855E-4
MEAN_MOTION_DDOT = 0

